ORBCOMM FM103 [+]       
1 40091U 14040F   23285.79624247  .00002004  00000+0  48897-3 0  9998
2 40091  47.0069  29.2622 0002071 322.1815  37.8924 14.55965514474651
ORBCOMM FM114 [+]       
1 41179U 15081A   23286.38061135  .00001561  00000+0  38902-3 0  9992
2 41179  47.0030 295.8714 0001336  12.9932 347.0987 14.55975910415153
ORBCOMM FM119 [-]       
1 41180U 15081B   23286.07332269  .00001915  00000+0  46889-3 0  9995
2 41180  46.9999 206.5099 0000778 134.6805 225.4143 14.55962290416311
ORBCOMM FM105 [-]       
1 41181U 15081C   23285.88382453  .00000770  00000+0  26861-3 0  9990
2 41181  47.0006 155.2902 0001341  89.9366 270.1667 14.44050988412074
ORBCOMM FM110 [+]       
1 41182U 15081D   23285.74001849  .00001961  00000+0  47926-3 0  9991
2 41182  47.0009 298.3133 0002767 258.5374 101.5200 14.55974709414888
ORBCOMM FM118 [+]       
1 41183U 15081E   23286.06041578  .00002190  00000+0  53068-3 0  9990
2 41183  47.0033 297.0689 0002939 255.7326 104.3232 14.55981133415117
ORBCOMM FM112 [+]       
1 41184U 15081F   23286.05149800  .00002670  00000+0  63856-3 0  9996
2 41184  46.9980 205.8720 0000838  79.9055 280.1924 14.55984362416301
ORBCOMM FM113 [+]       
1 41185U 15081G   23285.89033046  .00002340  00000+0  56449-3 0  9996
2 41185  47.0001 206.8496 0000422 114.6923 245.4006 14.55971668416219
