<?xml version="1.0" encoding="UTF-8"?>
<ndm xmlns:xsi="http://www.w3.org/2001/XMLSchema-instance" xsi:noNamespaceSchemaLocation="https://sanaregistry.org/r/ndmxml_unqualified/ndmxml-2.0.0-master-2.0.xsd">
<omm id="CCSDS_OMM_VERS" version="2.0">
<header><CREATION_DATE/><ORIGINATOR/></header><body><segment><metadata><OBJECT_NAME>ORBCOMM FM103 [+]</OBJECT_NAME><OBJECT_ID>2014-040F</OBJECT_ID><CENTER_NAME>EARTH</CENTER_NAME><REF_FRAME>TEME</REF_FRAME><TIME_SYSTEM>UTC</TIME_SYSTEM><MEAN_ELEMENT_THEORY>SGP4</MEAN_ELEMENT_THEORY></metadata><data><meanElements><EPOCH>2023-10-12T19:06:35.349408</EPOCH><MEAN_MOTION>14.55965514</MEAN_MOTION><ECCENTRICITY>.0002071</ECCENTRICITY><INCLINATION>47.0069</INCLINATION><RA_OF_ASC_NODE>29.2622</RA_OF_ASC_NODE><ARG_OF_PERICENTER>322.1815</ARG_OF_PERICENTER><MEAN_ANOMALY>37.8924</MEAN_ANOMALY></meanElements><tleParameters><EPHEMERIS_TYPE>0</EPHEMERIS_TYPE><CLASSIFICATION_TYPE>U</CLASSIFICATION_TYPE><NORAD_CAT_ID>40091</NORAD_CAT_ID><ELEMENT_SET_NO>999</ELEMENT_SET_NO><REV_AT_EPOCH>47465</REV_AT_EPOCH><BSTAR>.48897E-3</BSTAR><MEAN_MOTION_DOT>.2004E-4</MEAN_MOTION_DOT><MEAN_MOTION_DDOT>0</MEAN_MOTION_DDOT></tleParameters></data></segment></body></omm>
<omm id="CCSDS_OMM_VERS" version="2.0">
<header><CREATION_DATE/><ORIGINATOR/></header><body><segment><metadata><OBJECT_NAME>ORBCOMM FM114 [+]</OBJECT_NAME><OBJECT_ID>2015-081A</OBJECT_ID><CENTER_NAME>EARTH</CENTER_NAME><REF_FRAME>TEME</REF_FRAME><TIME_SYSTEM>UTC</TIME_SYSTEM><MEAN_ELEMENT_THEORY>SGP4</MEAN_ELEMENT_THEORY></metadata><data><meanElements><EPOCH>2023-10-13T09:08:04.820640</EPOCH><MEAN_MOTION>14.55975910</MEAN_MOTION><ECCENTRICITY>.0001336</ECCENTRICITY><INCLINATION>47.0030</INCLINATION><RA_OF_ASC_NODE>295.8714</RA_OF_ASC_NODE><ARG_OF_PERICENTER>12.9932</ARG_OF_PERICENTER><MEAN_ANOMALY>347.0987</MEAN_ANOMALY></meanElements><tleParameters><EPHEMERIS_TYPE>0</EPHEMERIS_TYPE><CLASSIFICATION_TYPE>U</CLASSIFICATION_TYPE><NORAD_CAT_ID>41179</NORAD_CAT_ID><ELEMENT_SET_NO>999</ELEMENT_SET_NO><REV_AT_EPOCH>41515</REV_AT_EPOCH><BSTAR>.38902E-3</BSTAR><MEAN_MOTION_DOT>.1561E-4</MEAN_MOTION_DOT><MEAN_MOTION_DDOT>0</MEAN_MOTION_DDOT></tleParameters></data></segment></body></omm>
<omm id="CCSDS_OMM_VERS" version="2.0">
<header><CREATION_DATE/><ORIGINATOR/></header><body><segment><metadata><OBJECT_NAME>ORBCOMM FM119 [-]</OBJECT_NAME><OBJECT_ID>2015-081B</OBJECT_ID><CENTER_NAME>EARTH</CENTER_NAME><REF_FRAME>TEME</REF_FRAME><TIME_SYSTEM>UTC</TIME_SYSTEM><MEAN_ELEMENT_THEORY>SGP4</MEAN_ELEMENT_THEORY></metadata><data><meanElements><EPOCH>2023-10-13T01:45:35.080416</EPOCH><MEAN_MOTION>14.55962290</MEAN_MOTION><ECCENTRICITY>.0000778</ECCENTRICITY><INCLINATION>46.9999</INCLINATION><RA_OF_ASC_NODE>206.5099</RA_OF_ASC_NODE><ARG_OF_PERICENTER>134.6805</ARG_OF_PERICENTER><MEAN_ANOMALY>225.4143</MEAN_ANOMALY></meanElements><tleParameters><EPHEMERIS_TYPE>0</EPHEMERIS_TYPE><CLASSIFICATION_TYPE>U</CLASSIFICATION_TYPE><NORAD_CAT_ID>41180</NORAD_CAT_ID><ELEMENT_SET_NO>999</ELEMENT_SET_NO><REV_AT_EPOCH>41631</REV_AT_EPOCH><BSTAR>.46889E-3</BSTAR><MEAN_MOTION_DOT>.1915E-4</MEAN_MOTION_DOT><MEAN_MOTION_DDOT>0</MEAN_MOTION_DDOT></tleParameters></data></segment></body></omm>
<omm id="CCSDS_OMM_VERS" version="2.0">
<header><CREATION_DATE/><ORIGINATOR/></header><body><segment><metadata><OBJECT_NAME>ORBCOMM FM105 [-]</OBJECT_NAME><OBJECT_ID>2015-081C</OBJECT_ID><CENTER_NAME>EARTH</CENTER_NAME><REF_FRAME>TEME</REF_FRAME><TIME_SYSTEM>UTC</TIME_SYSTEM><MEAN_ELEMENT_THEORY>SGP4</MEAN_ELEMENT_THEORY></metadata><data><meanElements><EPOCH>2023-10-12T21:12:42.439392</EPOCH><MEAN_MOTION>14.44050988</MEAN_MOTION><ECCENTRICITY>.0001341</ECCENTRICITY><INCLINATION>47.0006</INCLINATION><RA_OF_ASC_NODE>155.2902</RA_OF_ASC_NODE><ARG_OF_PERICENTER>89.9366</ARG_OF_PERICENTER><MEAN_ANOMALY>270.1667</MEAN_ANOMALY></meanElements><tleParameters><EPHEMERIS_TYPE>0</EPHEMERIS_TYPE><CLASSIFICATION_TYPE>U</CLASSIFICATION_TYPE><NORAD_CAT_ID>41181</NORAD_CAT_ID><ELEMENT_SET_NO>999</ELEMENT_SET_NO><REV_AT_EPOCH>41207</REV_AT_EPOCH><BSTAR>.26861E-3</BSTAR><MEAN_MOTION_DOT>.77E-5</MEAN_MOTION_DOT><MEAN_MOTION_DDOT>0</MEAN_MOTION_DDOT></tleParameters></data></segment></body></omm>
<omm id="CCSDS_OMM_VERS" version="2.0">
<header><CREATION_DATE/><ORIGINATOR/></header><body><segment><metadata><OBJECT_NAME>ORBCOMM FM110 [+]</OBJECT_NAME><OBJECT_ID>2015-081D</OBJECT_ID><CENTER_NAME>EARTH</CENTER_NAME><REF_FRAME>TEME</REF_FRAME><TIME_SYSTEM>UTC</TIME_SYSTEM><MEAN_ELEMENT_THEORY>SGP4</MEAN_ELEMENT_THEORY></metadata><data><meanElements><EPOCH>2023-10-12T17:45:37.597536</EPOCH><MEAN_MOTION>14.55974709</MEAN_MOTION><ECCENTRICITY>.0002767</ECCENTRICITY><INCLINATION>47.0009</INCLINATION><RA_OF_ASC_NODE>298.3133</RA_OF_ASC_NODE><ARG_OF_PERICENTER>258.5374</ARG_OF_PERICENTER><MEAN_ANOMALY>101.5200</MEAN_ANOMALY></meanElements><tleParameters><EPHEMERIS_TYPE>0</EPHEMERIS_TYPE><CLASSIFICATION_TYPE>U</CLASSIFICATION_TYPE><NORAD_CAT_ID>41182</NORAD_CAT_ID><ELEMENT_SET_NO>999</ELEMENT_SET_NO><REV_AT_EPOCH>41488</REV_AT_EPOCH><BSTAR>.47926E-3</BSTAR><MEAN_MOTION_DOT>.1961E-4</MEAN_MOTION_DOT><MEAN_MOTION_DDOT>0</MEAN_MOTION_DDOT></tleParameters></data></segment></body></omm>
<omm id="CCSDS_OMM_VERS" version="2.0">
<header><CREATION_DATE/><ORIGINATOR/></header><body><segment><metadata><OBJECT_NAME>ORBCOMM FM118 [+]</OBJECT_NAME><OBJECT_ID>2015-081E</OBJECT_ID><CENTER_NAME>EARTH</CENTER_NAME><REF_FRAME>TEME</REF_FRAME><TIME_SYSTEM>UTC</TIME_SYSTEM><MEAN_ELEMENT_THEORY>SGP4</MEAN_ELEMENT_THEORY></metadata><data><meanElements><EPOCH>2023-10-13T01:26:59.923392</EPOCH><MEAN_MOTION>14.55981133</MEAN_MOTION><ECCENTRICITY>.0002939</ECCENTRICITY><INCLINATION>47.0033</INCLINATION><RA_OF_ASC_NODE>297.0689</RA_OF_ASC_NODE><ARG_OF_PERICENTER>255.7326</ARG_OF_PERICENTER><MEAN_ANOMALY>104.3232</MEAN_ANOMALY></meanElements><tleParameters><EPHEMERIS_TYPE>0</EPHEMERIS_TYPE><CLASSIFICATION_TYPE>U</CLASSIFICATION_TYPE><NORAD_CAT_ID>41183</NORAD_CAT_ID><ELEMENT_SET_NO>999</ELEMENT_SET_NO><REV_AT_EPOCH>41511</REV_AT_EPOCH><BSTAR>.53068E-3</BSTAR><MEAN_MOTION_DOT>.219E-4</MEAN_MOTION_DOT><MEAN_MOTION_DDOT>0</MEAN_MOTION_DDOT></tleParameters></data></segment></body></omm>
<omm id="CCSDS_OMM_VERS" version="2.0">
<header><CREATION_DATE/><ORIGINATOR/></header><body><segment><metadata><OBJECT_NAME>ORBCOMM FM112 [+]</OBJECT_NAME><OBJECT_ID>2015-081F</OBJECT_ID><CENTER_NAME>EARTH</CENTER_NAME><REF_FRAME>TEME</REF_FRAME><TIME_SYSTEM>UTC</TIME_SYSTEM><MEAN_ELEMENT_THEORY>SGP4</MEAN_ELEMENT_THEORY></metadata><data><meanElements><EPOCH>2023-10-13T01:14:09.427200</EPOCH><MEAN_MOTION>14.55984362</MEAN_MOTION><ECCENTRICITY>.0000838</ECCENTRICITY><INCLINATION>46.9980</INCLINATION><RA_OF_ASC_NODE>205.8720</RA_OF_ASC_NODE><ARG_OF_PERICENTER>79.9055</ARG_OF_PERICENTER><MEAN_ANOMALY>280.1924</MEAN_ANOMALY></meanElements><tleParameters><EPHEMERIS_TYPE>0</EPHEMERIS_TYPE><CLASSIFICATION_TYPE>U</CLASSIFICATION_TYPE><NORAD_CAT_ID>41184</NORAD_CAT_ID><ELEMENT_SET_NO>999</ELEMENT_SET_NO><REV_AT_EPOCH>41630</REV_AT_EPOCH><BSTAR>.63856E-3</BSTAR><MEAN_MOTION_DOT>.267E-4</MEAN_MOTION_DOT><MEAN_MOTION_DDOT>0</MEAN_MOTION_DDOT></tleParameters></data></segment></body></omm>
<omm id="CCSDS_OMM_VERS" version="2.0">
<header><CREATION_DATE/><ORIGINATOR/></header><body><segment><metadata><OBJECT_NAME>ORBCOMM FM113 [+]</OBJECT_NAME><OBJECT_ID>2015-081G</OBJECT_ID><CENTER_NAME>EARTH</CENTER_NAME><REF_FRAME>TEME</REF_FRAME><TIME_SYSTEM>UTC</TIME_SYSTEM><MEAN_ELEMENT_THEORY>SGP4</MEAN_ELEMENT_THEORY></metadata><data><meanElements><EPOCH>2023-10-12T21:22:04.551744</EPOCH><MEAN_MOTION>14.55971668</MEAN_MOTION><ECCENTRICITY>.0000422</ECCENTRICITY><INCLINATION>47.0001</INCLINATION><RA_OF_ASC_NODE>206.8496</RA_OF_ASC_NODE><ARG_OF_PERICENTER>114.6923</ARG_OF_PERICENTER><MEAN_ANOMALY>245.4006</MEAN_ANOMALY></meanElements><tleParameters><EPHEMERIS_TYPE>0</EPHEMERIS_TYPE><CLASSIFICATION_TYPE>U</CLASSIFICATION_TYPE><NORAD_CAT_ID>41185</NORAD_CAT_ID><ELEMENT_SET_NO>999</ELEMENT_SET_NO><REV_AT_EPOCH>41621</REV_AT_EPOCH><BSTAR>.56449E-3</BSTAR><MEAN_MOTION_DOT>.234E-4</MEAN_MOTION_DOT><MEAN_MOTION_DDOT>0</MEAN_MOTION_DDOT></tleParameters></data></segment></body></omm>

</ndm>
